{
  "type": "FeatureCollection",
  "features": [
    {
      "type": "Feature",
      "properties": {
        "norad_id": 66815,
        "name": "STARLINK-35985",
        "group": "last-30-days",
        "lat": 25.366157575866655,
        "lon": -70.7716816272417,
        "alt_km": 298.1050060768057,
        "timestamp": "2025-12-11T15:53:38.294833+00:00",
        "meta_object_name": "STARLINK-35985",
        "meta_object_id": "2025-278AA",
        "meta_epoch": "2025-12-11T06:00:02.999808",
        "meta_mean_motion": 15.91499729,
        "meta_eccentricity": 0.00018201,
        "meta_inclination": 42.9979,
        "meta_ra_of_asc_node": 261.2028,
        "meta_arg_of_pericenter": 270.8227,
        "meta_mean_anomaly": 284.3469,
        "meta_ephemeris_type": 0,
        "meta_classification_type": "U",
        "meta_norad_cat_id": 66815,
        "meta_element_set_no": 999,
        "meta_rev_at_epoch": 280,
        "meta_bstar": -0.0042731358,
        "meta_mean_motion_dot": -0.01428536,
        "meta_mean_motion_ddot": 0.00057741013,
        "tle_line1": "1 66815U 25278AA  25345.25003472 -.01428536  57741-3 -42731-2 0  9999",
        "tle_line2": "2 66815  42.9979 261.2028 0001820 270.8227 284.3469 15.91499729  2800"
      },
      "geometry": {
        "type": "Point",
        "coordinates": [
          -70.7716816272417,
          25.366157575866655
        ]
      }
    },
    {
      "type": "Feature",
      "properties": {
        "norad_id": 66816,
        "name": "STARLINK-36098",
        "group": "last-30-days",
        "lat": 18.622218847544172,
        "lon": -80.12856081590752,
        "alt_km": 299.09271678337973,
        "timestamp": "2025-12-11T15:53:38.294843+00:00",
        "meta_object_name": "STARLINK-36098",
        "meta_object_id": "2025-278AB",
        "meta_epoch": "2025-12-11T06:00:02.999808",
        "meta_mean_motion": 15.91396343,
        "meta_eccentricity": 0.00017237,
        "meta_inclination": 42.9983,
        "meta_ra_of_asc_node": 261.2307,
        "meta_arg_of_pericenter": 272.4304,
        "meta_mean_anomaly": 271.8764,
        "meta_ephemeris_type": 0,
        "meta_classification_type": "U",
        "meta_norad_cat_id": 66816,
        "meta_element_set_no": 999,
        "meta_rev_at_epoch": 255,
        "meta_bstar": -0.0041806122,
        "meta_mean_motion_dot": -0.01390561,
        "meta_mean_motion_ddot": 0.00054904327,
        "tle_line1": "1 66816U 25278AB  25345.25003472 -.01390561  54904-3 -41806-2 0  9996",
        "tle_line2": "2 66816  42.9983 261.2307 0001723 272.4304 271.8764 15.91396343  2551"
      },
      "geometry": {
        "type": "Point",
        "coordinates": [
          -80.12856081590752,
          18.622218847544172
        ]
      }
    },
    {
      "type": "Feature",
      "properties": {
        "norad_id": 66817,
        "name": "STARLINK-35995",
        "group": "last-30-days",
        "lat": 21.804898248097278,
        "lon": -75.91541516796353,
        "alt_km": 298.59177908195215,
        "timestamp": "2025-12-11T15:53:38.294855+00:00",
        "meta_object_name": "STARLINK-35995",
        "meta_object_id": "2025-278AC",
        "meta_epoch": "2025-12-11T06:00:02.999808",
        "meta_mean_motion": 15.91461895,
        "meta_eccentricity": 0.0001767,
        "meta_inclination": 42.9983,
        "meta_ra_of_asc_node": 261.2179,
        "meta_arg_of_pericenter": 271.2751,
        "meta_mean_anomaly": 278.0261,
        "meta_ephemeris_type": 0,
        "meta_classification_type": "U",
        "meta_norad_cat_id": 66817,
        "meta_element_set_no": 999,
        "meta_rev_at_epoch": 271,
        "meta_bstar": -0.0042233072,
        "meta_mean_motion_dot": -0.01409325,
        "meta_mean_motion_ddot": 0.00056305113,
        "tle_line1": "1 66817U 25278AC  25345.25003472 -.01409325  56305-3 -42233-2 0  9998",
        "tle_line2": "2 66817  42.9983 261.2179 0001767 271.2751 278.0261 15.91461895  2714"
      },
      "geometry": {
        "type": "Point",
        "coordinates": [
          -75.91541516796353,
          21.804898248097278
        ]
      }
    },
    {
      "type": "Feature",
      "properties": {
        "norad_id": 66818,
        "name": "STARLINK-35994",
        "group": "last-30-days",
        "lat": 20.425243892729075,
        "lon": -77.77955090130209,
        "alt_km": 298.8712008811617,
        "timestamp": "2025-12-11T15:53:38.294865+00:00",
        "meta_object_name": "STARLINK-35994",
        "meta_object_id": "2025-278AD",
        "meta_epoch": "2025-12-11T06:00:02.999808",
        "meta_mean_motion": 15.9142855,
        "meta_eccentricity": 0.00016911,
        "meta_inclination": 42.9983,
        "meta_ra_of_asc_node": 261.2236,
        "meta_arg_of_pericenter": 269.0942,
        "meta_mean_anomaly": 278.0316,
        "meta_ephemeris_type": 0,
        "meta_classification_type": "U",
        "meta_norad_cat_id": 66818,
        "meta_element_set_no": 999,
        "meta_rev_at_epoch": 271,
        "meta_bstar": -0.0042113641,
        "meta_mean_motion_dot": -0.01402974,
        "meta_mean_motion_ddot": 0.00055823115,
        "tle_line1": "1 66818U 25278AD  25345.25003472 -.01402974  55823-3 -42114-2 0  9994",
        "tle_line2": "2 66818  42.9983 261.2236 0001691 269.0942 278.0316 15.91428550  2714"
      },
      "geometry": {
        "type": "Point",
        "coordinates": [
          -77.77955090130209,
          20.425243892729075
        ]
      }
    },
    {
      "type": "Feature",
      "properties": {
        "norad_id": 66819,
        "name": "STARLINK-35989",
        "group": "last-30-days",
        "lat": 23.174608382361605,
        "lon": -73.99864311601706,
        "alt_km": 298.346382302424,
        "timestamp": "2025-12-11T15:53:38.294875+00:00",
        "meta_object_name": "STARLINK-35989",
        "meta_object_id": "2025-278AE",
        "meta_epoch": "2025-12-11T06:00:02.999808",
        "meta_mean_motion": 15.91498455,
        "meta_eccentricity": 0.00017518,
        "meta_inclination": 42.9984,
        "meta_ra_of_asc_node": 261.2124,
        "meta_arg_of_pericenter": 270.4276,
        "meta_mean_anomaly": 281.0656,
        "meta_ephemeris_type": 0,
        "meta_classification_type": "U",
        "meta_norad_cat_id": 66819,
        "meta_element_set_no": 999,
        "meta_rev_at_epoch": 271,
        "meta_bstar": -0.0042391979,
        "meta_mean_motion_dot": -0.01417211,
        "meta_mean_motion_ddot": 0.00056903941,
        "tle_line1": "1 66819U 25278AE  25345.25003472 -.01417211  56904-3 -42392-2 0  9994",
        "tle_line2": "2 66819  42.9984 261.2124 0001751 270.4276 281.0656 15.91498455  2717"
      },
      "geometry": {
        "type": "Point",
        "coordinates": [
          -73.99864311601706,
          23.174608382361605
        ]
      }
    },
    {
      "type": "Feature",
      "properties": {
        "norad_id": 66820,
        "name": "KOMPSAT-7",
        "group": "last-30-days",
        "lat": -64.68031645519044,
        "lon": -51.966281496290804,
        "alt_km": 576.4373125414077,
        "timestamp": "2025-12-11T15:53:38.294886+00:00",
        "meta_object_name": "KOMPSAT-7",
        "meta_object_id": "2025-279A",
        "meta_epoch": "2025-12-11T00:09:46.708704",
        "meta_mean_motion": 14.98662486,
        "meta_eccentricity": 0.00081984,
        "meta_inclination": 97.6407,
        "meta_ra_of_asc_node": 290.9079,
        "meta_arg_of_pericenter": 224.9199,
        "meta_mean_anomaly": 135.1362,
        "meta_ephemeris_type": 0,
        "meta_classification_type": "U",
        "meta_norad_cat_id": 66820,
        "meta_element_set_no": 999,
        "meta_rev_at_epoch": 139,
        "meta_bstar": 0.00036088548,
        "meta_mean_motion_dot": 4.28e-05,
        "meta_mean_motion_ddot": 0,
        "tle_line1": "1 66820U 25279A   25345.00679061  .00004280  00000+0  36089-3 0  9997",
        "tle_line2": "2 66820  97.6407 290.9079 0008198 224.9199 135.1362 14.98662486  1393"
      },
      "geometry": {
        "type": "Point",
        "coordinates": [
          -51.966281496290804,
          -64.68031645519044
        ]
      }
    },
    {
      "type": "Feature",
      "properties": {
        "norad_id": 66821,
        "name": "STARLINK-35966",
        "group": "last-30-days",
        "lat": -9.15527537650438,
        "lon": -161.43875340343325,
        "alt_km": 322.6895972562852,
        "timestamp": "2025-12-11T15:53:38.294898+00:00",
        "meta_object_name": "STARLINK-35966",
        "meta_object_id": "2025-280A",
        "meta_epoch": "2025-12-10T16:00:01.999584",
        "meta_mean_motion": 15.87163122,
        "meta_eccentricity": 0.00039131,
        "meta_inclination": 69.9939,
        "meta_ra_of_asc_node": 204.7907,
        "meta_arg_of_pericenter": 271.1294,
        "meta_mean_anomaly": 158.5043,
        "meta_ephemeris_type": 0,
        "meta_classification_type": "U",
        "meta_norad_cat_id": 66821,
        "meta_element_set_no": 999,
        "meta_rev_at_epoch": 256,
        "meta_bstar": -0.0067612749,
        "meta_mean_motion_dot": -0.01557078,
        "meta_mean_motion_ddot": 0,
        "tle_line1": "1 66821U 25280A   25344.66668981 -.01557078  00000+0 -67613-2 0  9997",
        "tle_line2": "2 66821  69.9939 204.7907 0003913 271.1294 158.5043 15.87163122  2566"
      },
      "geometry": {
        "type": "Point",
        "coordinates": [
          -161.43875340343325,
          -9.15527537650438
        ]
      }
    }
  ]
}